XRISM                   
1 57800U 23137A   23346.57078894  .00003085  00000+0  24270-3 0  9995
2 57800  31.0025 124.6184 0010026 149.8928 210.2285 14.98875317 14412
